{
    "links": {
        "self": "http://www.neowsapp.com/rest/v1/neo/3976537?api_key=iIulBulltgU6a56xZRHN4H3l9WmuAYTsLGpBGhQ2"
    },
    "id": "3976537",
    "neo_reference_id": "3976537",
    "name": "(2020 AS1)",
    "designation": "2020 AS1",
    "nasa_jpl_url": "http://ssd.jpl.nasa.gov/sbdb.cgi?sstr=3976537",
    "absolute_magnitude_h": 26.7,
    "estimated_diameter": {
        "kilometers": {
            "estimated_diameter_min": 0.0121494041,
            "estimated_diameter_max": 0.0271668934
        },
        "meters": {
            "estimated_diameter_min": 12.14940408,
            "estimated_diameter_max": 27.1668934089
        },
        "miles": {
            "estimated_diameter_min": 0.0075492874,
            "estimated_diameter_max": 0.0168807197
        },
        "feet": {
            "estimated_diameter_min": 39.8602508817,
            "estimated_diameter_max": 89.1302305717
        }
    },
    "is_potentially_hazardous_asteroid": false,
    "close_approach_data": [
        {
            "close_approach_date": "2020-01-13",
            "close_approach_date_full": "2020-Jan-13 10:14",
            "epoch_date_close_approach": 1578910440000,
            "relative_velocity": {
                "kilometers_per_second": "5.6902982703",
                "kilometers_per_hour": "20485.0737731686",
                "miles_per_hour": "12728.6282008891"
            },
            "miss_distance": {
                "astronomical": "0.0404535549",
                "lunar": "15.7364328561",
                "kilometers": "6051765.646968063",
                "miles": "3760392.8012947494"
            },
            "orbiting_body": "Earth"
        },
        {
            "close_approach_date": "2062-12-04",
            "close_approach_date_full": "2062-Dec-04 12:05",
            "epoch_date_close_approach": 2932459500000,
            "relative_velocity": {
                "kilometers_per_second": "19.6312337662",
                "kilometers_per_hour": "70672.441558405",
                "miles_per_hour": "43913.1068116656"
            },
            "miss_distance": {
                "astronomical": "0.4760062796",
                "lunar": "185.1664427644",
                "kilometers": "71209525.534784452",
                "miles": "44247547.3812793576"
            },
            "orbiting_body": "Earth"
        },
        {
            "close_approach_date": "2063-05-02",
            "close_approach_date_full": "2063-May-02 06:14",
            "epoch_date_close_approach": 2945312040000,
            "relative_velocity": {
                "kilometers_per_second": "11.3633678689",
                "kilometers_per_hour": "40908.1243280738",
                "miles_per_hour": "25418.7175859634"
            },
            "miss_distance": {
                "astronomical": "0.0641064035",
                "lunar": "24.9373909615",
                "kilometers": "9590181.416960545",
                "miles": "5959062.407103721"
            },
            "orbiting_body": "Mars"
        },
        {
            "close_approach_date": "2074-08-18",
            "close_approach_date_full": "2074-Aug-18 09:39",
            "epoch_date_close_approach": 3301810740000,
            "relative_velocity": {
                "kilometers_per_second": "12.5244073084",
                "kilometers_per_hour": "45087.8663103131",
                "miles_per_hour": "28015.8467082054"
            },
            "miss_distance": {
                "astronomical": "0.0274514216",
                "lunar": "10.6786030024",
                "kilometers": "4106674.199831992",
                "miles": "2551769.0206738096"
            },
            "orbiting_body": "Mars"
        }
    ],
    "orbital_data": {
        "orbit_id": "3",
        "orbit_determination_date": "2020-01-18 05:00:25",
        "first_observation_date": "2020-01-04",
        "last_observation_date": "2020-01-17",
        "data_arc_in_days": 13,
        "observations_used": 38,
        "orbit_uncertainty": "8",
        "minimum_orbit_intersection": ".0273423",
        "jupiter_tisserand_invariant": "4.067",
        "epoch_osculation": "2458854.5",
        "eccentricity": ".4143946772457689",
        "semi_major_axis": "1.723240376613687",
        "inclination": "1.247316061862925",
        "ascending_node_longitude": "93.92911786940059",
        "orbital_period": "826.2609341415879",
        "perihelion_distance": "1.009138736929981",
        "perihelion_argument": "32.87672625987329",
        "aphelion_distance": "2.437342016297393",
        "perihelion_time": "2458873.377689658419",
        "mean_anomaly": "351.7750337741778",
        "mean_motion": ".4356977137906298",
        "equinox": "J2000",
        "orbit_class": {
            "orbit_class_type": "APO",
            "orbit_class_description": "Near-Earth asteroid orbits which cross the Earth’s orbit similar to that of 1862 Apollo",
            "orbit_class_range": "a (semi-major axis) > 1.0 AU; q (perihelion) < 1.017 AU"
        }
    },
    "is_sentry_object": false
}